[{"OBJECT_NAME":"STARLINK-3757","OBJECT_ID":"2022-051G","EPOCH":"2026-03-09T10:25:05.142720","MEAN_MOTION":15.08839998,"ECCENTRICITY":0.00015891,"INCLINATION":53.2179,"RA_OF_ASC_NODE":130.2694,"ARG_OF_PERICENTER":89.51,"MEAN_ANOMALY":270.6075,"EPHEMERIS_TYPE":0,"CLASSIFICATION_TYPE":"U","NORAD_CAT_ID":52539,"ELEMENT_SET_NO":999,"REV_AT_EPOCH":21140,"BSTAR":3.5835187e-5,"MEAN_MOTION_DOT":2.82e-6,"MEAN_MOTION_DDOT":0},{"OBJECT_NAME":"OBJECT G","OBJECT_ID":"2026-027G","EPOCH":"2026-03-09T21:53:37.288032","MEAN_MOTION":15.12145257,"ECCENTRICITY":0.00120269,"INCLINATION":97.4906,"RA_OF_ASC_NODE":197.8999,"ARG_OF_PERICENTER":227.3105,"MEAN_ANOMALY":132.7114,"EPHEMERIS_TYPE":0,"CLASSIFICATION_TYPE":"U","NORAD_CAT_ID":67752,"ELEMENT_SET_NO":999,"REV_AT_EPOCH":389,"BSTAR":0.00053594907,"MEAN_MOTION_DOT":9.195e-5,"MEAN_MOTION_DDOT":0}]
